NORAD_CAT_ID,OBJECT_NAME,OBJECT_TYPE,EPOCH,MEAN_MOTION,ECCENTRICITY,INCLINATION,RA_OF_ASC_NODE,ARG_OF_PERICENTER,MEAN_ANOMALY,BSTAR,MEAN_MOTION_DOT,MEAN_MOTION_DDOT,TLE_LINE0,TLE_LINE1,TLE_LINE2,SEMIMAJOR_AXIS,PERIOD,APOGEE,PERIGEE,DECAYED
53391.0,STARLINK-4521,PAYLOAD,2024-01-20 00:00:43,15.08844338,0.0001484,53.2189,24.2819,112.6161,247.4988,4.9175e-06,-2.1e-06,0.0,0 STARLINK-4521,1 53391U 22097D   24020.00050558 -.00000210  00000-0  49175-5 0  9997,2 53391  53.2189  24.2819 0001484 112.6161 247.4988 15.08844338 80310,6917.867,95.437,540.759,538.706,0.0
53391.0,STARLINK-4521,PAYLOAD,2024-01-20 06:22:16,15.08843216,0.0001229,53.2185,23.0939,93.2386,266.8747,-2.4742e-05,-6.82e-06,0.0,0 STARLINK-4521,1 53391U 22097D   24020.26546794 -.00000682  00000-0 -24742-4 0  9993,2 53391  53.2185  23.0939 0001229  93.2386 266.8747 15.08843216 81005,6917.871,95.437,540.586,538.885,0.0
53391.0,STARLINK-4521,PAYLOAD,2024-01-21 03:02:17,15.08841414,0.0001354,53.22,19.2285,78.283,281.8314,6.5104e-05,7.48e-06,0.0,0 STARLINK-4521,1 53391U 22097D   24021.12658816  .00000748  00000-0  65104-4 0  9996,2 53391  53.2200  19.2285 0001354  78.2830 281.8314 15.08841414 80486,6917.876,95.437,540.678,538.804,0.0
53391.0,STARLINK-4521,PAYLOAD,2024-01-21 06:13:03,15.08849969,0.0001457,53.2197,18.6354,64.1335,295.9807,1.1397e-05,-1.07e-06,0.0,0 STARLINK-4521,1 53391U 22097D   24021.25906487 -.00000107  00000-0  11397-4 0  9995,2 53391  53.2197  18.6354 0001457  64.1335 295.9807 15.08849969 81150,6917.85,95.437,540.723,538.707,0.0
53391.0,STARLINK-4521,PAYLOAD,2024-01-22 06:03:50,15.08841866,0.0001701,53.219,14.1742,69.7956,290.3219,0.00011664,1.569e-05,0.0,0 STARLINK-4521,1 53391U 22097D   24022.25266776  .00001569  00000-0  11664-3 0  9994,2 53391  53.2190  14.1742 0001701  69.7956 290.3219 15.08841866 81308,6917.875,95.437,540.916,538.563,0.0
53391.0,STARLINK-4521,PAYLOAD,2024-01-22 09:14:36,15.08834424,0.0001714,53.2201,13.5734,106.331,253.7871,0.00027601,4.107e-05,0.0,0 STARLINK-4521,1 53391U 22097D   24022.38514749  .00004107  00000-0  27601-3 0  9993,2 53391  53.2201  13.5734 0001714 106.3310 253.7871 15.08834424 80679,6917.897,95.438,540.948,538.577,0.0
53391.0,STARLINK-4521,PAYLOAD,2024-01-23 05:54:37,15.08842028,0.0001512,53.2209,9.7033,100.6989,259.4173,5.6788e-05,6.16e-06,0.0,0 STARLINK-4521,1 53391U 22097D   24023.24626748  .00000616  00000-0  56788-4 0  9992,2 53391  53.2209   9.7033 0001512 100.6989 259.4173 15.08842028 81455,6917.874,95.437,540.785,538.693,0.0
53391.0,STARLINK-4521,PAYLOAD,2024-01-24 04:10:01,15.08847939,0.0001606,53.22,5.5459,107.8512,252.2656,-2.1075e-05,-6.24e-06,0.0,0 STARLINK-4521,1 53391U 22097D   24024.17362629 -.00000624  00000-0 -21075-4 0  9992,2 53391  53.2200   5.5459 0001606 107.8512 252.2656 15.08847939 80943,6917.856,95.437,540.832,538.61,0.0
53391.0,STARLINK-4521,PAYLOAD,2024-01-24 05:45:24,15.08849424,0.0001578,53.2201,5.249,107.7289,252.3875,-6.8479e-06,-3.97e-06,0.0,0 STARLINK-4521,1 53391U 22097D   24024.23986562 -.00000397  00000-0 -68479-5 0  9994,2 53391  53.2201   5.2490 0001578 107.7289 252.3875 15.08849424 81603,6917.852,95.437,540.808,538.625,0.0
53391.0,STARLINK-4521,PAYLOAD,2024-01-25 04:00:48,15.0883852,0.0001753,53.2199,1.0911,113.5807,246.5369,5.7301e-05,6.24e-06,0.0,0 STARLINK-4521,1 53391U 22097D   24025.16723233  .00000624  00000-0  57301-4 0  9993,2 53391  53.2199   1.0911 0001753 113.5807 246.5369 15.08838520 81098,6917.885,95.438,540.963,538.537,0.0
53391.0,STARLINK-4521,PAYLOAD,2024-01-26 05:26:59,15.08842132,0.0001661,53.2202,356.3278,84.4515,275.6667,0.00010087,1.318e-05,0.0,0 STARLINK-4521,1 53391U 22097D   24026.22707186  .00001318  00000-0  10087-3 0  9990,2 53391  53.2202 356.3278 0001661  84.4515 275.6667 15.08842132 81251,6917.874,95.437,540.888,538.59,0.0
53391.0,STARLINK-4521,PAYLOAD,2024-01-27 03:42:23,15.08838305,0.0001855,53.2199,352.1732,70.2922,289.827,6.1774e-05,6.95e-06,0.0,0 STARLINK-4521,1 53391U 22097D   24027.15443907  .00000695  00000-0  61774-4 0  9998,2 53391  53.2199 352.1732 0001855  70.2922 289.8270 15.08838305 81394,6917.886,95.438,541.034,538.467,0.0
53391.0,STARLINK-4521,PAYLOAD,2024-01-27 06:53:09,15.08846272,0.0001646,53.2199,351.5704,86.0982,274.0198,0.00012871,1.761e-05,0.0,0 STARLINK-4521,1 53391U 22097D   24027.28691080  .00001761  00000-0  12871-3 0  9997,2 53391  53.2199 351.5704 0001646  86.0982 274.0198 15.08846272 81415,6917.861,95.437,540.865,538.588,0.0
53391.0,STARLINK-4521,PAYLOAD,2024-01-28 03:33:10,15.08844508,0.0001792,53.2201,347.7003,75.7723,284.3468,6.3676e-05,7.26e-06,0.0,0 STARLINK-4521,1 53391U 22097D   24028.14803295  .00000726  00000-0  63676-4 0  9996,2 53391  53.2201 347.7003 0001792  75.7723 284.3468 15.08844508 81546,6917.867,95.437,540.971,538.492,0.0
53391.0,STARLINK-4521,PAYLOAD,2024-01-28 06:43:56,15.088464,0.000197,53.221,347.103,70.2065,289.914,7.886e-05,9.67e-06,0.0,0 STARLINK-4521,1 53391U 22097D   24028.28051183  .00000967  00000-0  78860-4 0  9990,2 53391  53.2210 347.1030 0001970  70.2065 289.9140 15.08846400 82213,6917.861,95.437,541.089,538.363,0.0
53391.0,STARLINK-4521,PAYLOAD,2024-01-29 06:34:43,15.08843741,0.000211,53.221,342.6437,123.5935,236.5258,1.5262e-05,-4.5e-07,0.0,0 STARLINK-4521,1 53391U 22097D   24029.27411170 -.00000045  00000-0  15262-4 0  9991,2 53391  53.2210 342.6437 0002110 123.5935 236.5258 15.08843741 81716,6917.869,95.437,541.194,538.274,0.0
53391.0,STARLINK-4521,PAYLOAD,2024-01-30 06:25:30,15.08841643,0.0001827,53.2206,338.1849,114.7048,245.4135,-9.9108e-06,-4.46e-06,0.0,0 STARLINK-4521,1 53391U 22097D   24030.26771407 -.00000446  00000-0 -99108-5 0  9992,2 53391  53.2206 338.1849 0001827 114.7048 245.4135 15.08841643 82510,6917.875,95.437,541.004,538.476,0.0
53391.0,STARLINK-4521,PAYLOAD,2024-01-31 01:30:08,15.08839768,0.0001668,53.22,334.6173,105.0684,255.0493,3.9744e-05,3.45e-06,0.0,0 STARLINK-4521,1 53391U 22097D   24031.06259469  .00000345  00000-0  39744-4 0  9995,2 53391  53.2200 334.6173 0001668 105.0684 255.0493 15.08839768 82639,6917.881,95.438,540.9,538.592,0.0
53391.0,STARLINK-4521,PAYLOAD,2024-01-31 20:34:46,15.0883558,0.0001625,53.22,331.0514,97.2198,262.8979,1.9406e-05,2.1e-07,0.0,0 STARLINK-4521,1 53391U 22097D   24031.85748040  .00000021  00000-0  19406-4 0  9994,2 53391  53.2200 331.0514 0001625  97.2198 262.8979 15.08835580 82750,6917.894,95.438,540.883,538.635,0.0
53391.0,STARLINK-4521,PAYLOAD,2024-02-01 02:56:19,15.08834286,0.0001503,53.2195,329.862,95.2508,264.8656,2.5694e-06,-2.47e-06,0.0,0 STARLINK-4521,1 53391U 22097D   24032.12244227 -.00000247  00000-0  25694-5 0  9991,2 53391  53.2195 329.8620 0001503  95.2508 264.8656 15.08834286 82143,6917.898,95.438,540.803,538.723,0.0
53391.0,STARLINK-4521,PAYLOAD,2024-02-02 02:47:05,15.08842843,0.0001449,53.2191,325.407,85.4224,274.6934,9.5586e-05,1.234e-05,0.0,0 STARLINK-4521,1 53391U 22097D   24033.11603713  .00001234  00000-0  95586-4 0  9992,2 53391  53.2191 325.4070 0001449  85.4224 274.6934 15.08842843 82297,6917.872,95.437,540.739,538.734,0.0
53391.0,STARLINK-4521,PAYLOAD,2024-02-03 04:13:16,15.08835122,0.0001388,53.2191,320.6466,86.381,273.7341,4.9492e-05,5e-06,0.0,0 STARLINK-4521,1 53391U 22097D   24034.17588599  .00000500  00000-0  49492-4 0  9993,2 53391  53.2191 320.6466 0001388  86.3810 273.7341 15.08835122 82458,6917.895,95.438,540.721,538.8,0.0
53391.0,STARLINK-4521,PAYLOAD,2024-02-04 04:04:02,15.08854973,0.0001565,53.2195,316.1837,83.1864,276.9306,0.00010345,1.359e-05,0.0,0 STARLINK-4521,1 53391U 22097D   24035.16947226  .00001359  00000-0  10345-3 0  9996,2 53391  53.2195 316.1837 0001565  83.1864 276.9306 15.08854973 82603,6917.835,95.437,540.782,538.617,0.0
53391.0,STARLINK-4521,PAYLOAD,2024-02-04 18:22:31,15.08835033,0.0001204,53.2193,313.5063,106.7938,253.3186,-2.8808e-06,-3.34e-06,0.0,0 STARLINK-4521,1 53391U 22097D   24035.76564765 -.00000334  00000-0 -28808-5 0  9994,2 53391  53.2193 313.5063 0001204 106.7938 253.3186 15.08835033 82697,6917.896,95.438,540.593,538.928,0.0
53391.0,STARLINK-4521,PAYLOAD,2024-02-05 00:44:04,15.08839416,0.0001434,53.2183,312.3211,93.0622,267.0534,3.0829e-05,2.03e-06,0.0,0 STARLINK-4521,1 53391U 22097D   24036.03060452  .00000203  00000-0  30829-4 0  9997,2 53391  53.2183 312.3211 0001434  93.0622 267.0534 15.08839416 82734,6917.882,95.438,540.739,538.755,0.0
53391.0,STARLINK-4521,PAYLOAD,2024-02-05 22:59:27,15.08854437,0.000177,53.2186,308.1578,129.6498,230.4651,-3.7724e-05,-8.89e-06,0.0,0 STARLINK-4521,1 53391U 22097D   24036.95795465 -.00000889  00000-0 -37724-4 0  9990,2 53391  53.2186 308.1578 0001770 129.6498 230.4651 15.08854437 83528,6917.836,95.437,540.926,538.477,0.0
53391.0,STARLINK-4521,PAYLOAD,2024-02-06 03:45:36,15.08858685,0.000152,53.2185,307.2646,90.8248,269.2918,2.6321e-05,1.31e-06,0.0,0 STARLINK-4521,1 53391U 22097D   24037.15667033  .00000131  00000-0  26321-4 0  9991,2 53391  53.2185 307.2646 0001520  90.8248 269.2918 15.08858685 82904,6917.823,95.436,540.74,538.637,0.0
53391.0,STARLINK-4521,PAYLOAD,2024-02-06 22:50:14,15.08844538,0.0001501,53.2174,303.6898,122.8449,237.2688,-3.6589e-05,-8.7e-06,0.0,0 STARLINK-4521,1 53391U 22097D   24037.95155821 -.00000870  00000-0 -36589-4 0  9995,2 53391  53.2174 303.6898 0001501 122.8449 237.2688 15.08844538 83675,6917.867,95.437,540.77,538.693,0.0
53391.0,STARLINK-4521,PAYLOAD,2024-02-07 03:36:24,15.08843713,0.0001411,53.218,302.7991,115.2276,244.8862,-2.6929e-05,-7.17e-06,0.0,0 STARLINK-4521,1 53391U 22097D   24038.15027842 -.00000717  00000-0 -26929-4 0  9996,2 53391  53.2180 302.7991 0001411 115.2276 244.8862 15.08843713 83054,6917.869,95.437,540.71,538.758,0.0
53391.0,STARLINK-4521,PAYLOAD,2024-02-07 21:05:39,15.08835134,0.0001467,53.2174,299.5283,110.0406,250.0744,-7.8505e-05,-1.537e-05,0.0,0 STARLINK-4521,1 53391U 22097D   24038.87892844 -.00001537  00000-0 -78505-4 0  9995,2 53391  53.2174 299.5283 0001467 110.0406 250.0744 15.08835134 83813,6917.895,95.438,540.775,538.745,0.0
